{"type": "FeatureCollection", "features": [ {"type": "Feature", "properties": {"norad_id": 51444, "name": "CSG-2", "group": "resource", "lat": -41.29800754709294, "lon": -15.14630898128071, "alt_km": 629.9307021583645, "timestamp": "2025-12-16T13:52:37.187567+00:00", "meta": {"OBJECT_NAME": "CSG-2", "OBJECT_ID": "2022-008A", "EPOCH": "2025-12-14T21:59:39.018912", "MEAN_MOTION": 14.82165966, "ECCENTRICITY": 0.0001469, "INCLINATION": 97.8808, "RA_OF_ASC_NODE": 170.2065, "ARG_OF_PERICENTER": 82.0603, "MEAN_ANOMALY": 278.0777, "EPHEMERIS_TYPE": 0, "CLASSIFICATION_TYPE": "U", "NORAD_CAT_ID": 51444, "ELEMENT_SET_NO": 999, "REV_AT_EPOCH": 20929, "BSTAR": 5.0769599e-05, "MEAN_MOTION_DOT": 3.52e-06, "MEAN_MOTION_DDOT": 0}, "tle": {"line1": "1 51444U 22008A   25348.91642383  .00000352  00000+0  50770-4 0  9990", "line2": "2 51444  97.8808 170.2065 0001469  82.0603 278.0777 14.82165966209298"}}, "geometry": {"type": "Point", "coordinates": [-15.14630898128071, -41.29800754709294]}}, {"type": "Feature", "properties": {"norad_id": 52912, "name": "GAOFEN-12 03", "group": "resource", "lat": 74.8018476412472, "lon": 88.35334390236183, "alt_km": 622.3866158256778, "timestamp": "2025-12-16T13:52:37.187577+00:00", "meta": {"OBJECT_NAME": "GAOFEN-12 03", "OBJECT_ID": "2022-069A", "EPOCH": "2025-12-15T22:48:21.509280", "MEAN_MOTION": 14.79618837, "ECCENTRICITY": 0.00021615, "INCLINATION": 97.8485, "RA_OF_ASC_NODE": 237.2252, "ARG_OF_PERICENTER": 57.2465, "MEAN_ANOMALY": 302.8955, "EPHEMERIS_TYPE": 0, "CLASSIFICATION_TYPE": "U", "NORAD_CAT_ID": 52912, "ELEMENT_SET_NO": 999, "REV_AT_EPOCH": 18751, "BSTAR": 0.00015709126, "MEAN_MOTION_DOT": 1.127e-05, "MEAN_MOTION_DDOT": 0}, "tle": {"line1": "1 52912U 22069A   25349.95024895  .00001127  00000+0  15709-3 0  9998", "line2": "2 52912  97.8485 237.2252 0002161  57.2465 302.8955 14.79618837187512"}}, "geometry": {"type": "Point", "coordinates": [88.35334390236183, 74.8018476412472]}}, {"type": "Feature", "properties": {"norad_id": 54754, "name": "SWOT", "group": "resource", "lat": 61.252233124745395, "lon": -54.5702477519878, "alt_km": 886.8766717077679, "timestamp": "2025-12-16T13:52:37.187599+00:00", "meta": {"OBJECT_NAME": "SWOT", "OBJECT_ID": "2022-173A", "EPOCH": "2025-12-15T22:08:20.410080", "MEAN_MOTION": 14.00167371, "ECCENTRICITY": 3.589e-05, "INCLINATION": 77.6107, "RA_OF_ASC_NODE": 282.6933, "ARG_OF_PERICENTER": 104.4183, "MEAN_ANOMALY": 255.7008, "EPHEMERIS_TYPE": 0, "CLASSIFICATION_TYPE": "U", "NORAD_CAT_ID": 54754, "ELEMENT_SET_NO": 999, "REV_AT_EPOCH": 15350, "BSTAR": 6.2884058e-05, "MEAN_MOTION_DOT": 9e-07, "MEAN_MOTION_DDOT": 0}, "tle": {"line1": "1 54754U 22173A   25349.92245845  .00000090  00000+0  62884-4 0  9992", "line2": "2 54754  77.6107 282.6933 0000358 104.4183 255.7008 14.00167371153506"}}, "geometry": {"type": "Point", "coordinates": [-54.5702477519878, 61.252233124745395]}}, {"type": "Feature", "properties": {"norad_id": 57654, "name": "GAOFEN-12 04", "group": "resource", "lat": -81.19138817849115, "lon": -29.895601293259396, "alt_km": 638.4202232870848, "timestamp": "2025-12-16T13:52:37.187611+00:00", "meta": {"OBJECT_NAME": "GAOFEN-12 04", "OBJECT_ID": "2023-123A", "EPOCH": "2025-12-15T23:39:34.099776", "MEAN_MOTION": 14.79709536, "ECCENTRICITY": 0.00012714, "INCLINATION": 97.9123, "RA_OF_ASC_NODE": 265.6936, "ARG_OF_PERICENTER": 74.4983, "MEAN_ANOMALY": 285.6369, "EPHEMERIS_TYPE": 0, "CLASSIFICATION_TYPE": "U", "NORAD_CAT_ID": 57654, "ELEMENT_SET_NO": 999, "REV_AT_EPOCH": 12553, "BSTAR": 0.00017620719, "MEAN_MOTION_DOT": 1.272e-05, "MEAN_MOTION_DDOT": 0}, "tle": {"line1": "1 57654U 23123A   25349.98581134  .00001272  00000+0  17621-3 0  9991", "line2": "2 57654  97.9123 265.6936 0001271  74.4983 285.6369 14.79709536125539"}}, "geometry": {"type": "Point", "coordinates": [-29.895601293259396, -81.19138817849115]}}, {"type": "Feature", "properties": {"norad_id": 59065, "name": "PARS 1", "group": "resource", "lat": 74.53759987427911, "lon": -66.6952171429936, "alt_km": 427.77376759755316, "timestamp": "2025-12-16T13:52:37.187621+00:00", "meta": {"OBJECT_NAME": "PARS 1", "OBJECT_ID": "2024-039Q", "EPOCH": "2025-12-15T23:31:18.628608", "MEAN_MOTION": 15.41050537, "ECCENTRICITY": 0.0012376, "INCLINATION": 97.4631, "RA_OF_ASC_NODE": 320.9819, "ARG_OF_PERICENTER": 62.5003, "MEAN_ANOMALY": 297.75, "EPHEMERIS_TYPE": 0, "CLASSIFICATION_TYPE": "U", "NORAD_CAT_ID": 59065, "ELEMENT_SET_NO": 999, "REV_AT_EPOCH": 10038, "BSTAR": 0.00022688796, "MEAN_MOTION_DOT": 9.308e-05, "MEAN_MOTION_DDOT": 0}, "tle": {"line1": "1 59065U 24039Q   25349.98007672  .00009308  00000+0  22689-3 0  9994", "line2": "2 59065  97.4631 320.9819 0012376  62.5003 297.7500 15.41050537100387"}}, "geometry": {"type": "Point", "coordinates": [-66.6952171429936, 74.53759987427911]}}, {"type": "Feature", "properties": {"norad_id": 59371, "name": "RESURS-P 4", "group": "resource", "lat": 80.98445280351109, "lon": 170.2336061398551, "alt_km": 461.4489863968656, "timestamp": "2025-12-16T13:52:37.187631+00:00", "meta": {"OBJECT_NAME": "RESURS-P 4", "OBJECT_ID": "2024-061A", "EPOCH": "2025-12-15T23:21:18.575424", "MEAN_MOTION": 15.32112121, "ECCENTRICITY": 0.00012714, "INCLINATION": 97.2544, "RA_OF_ASC_NODE": 296.2368, "ARG_OF_PERICENTER": 54.8101, "MEAN_ANOMALY": 305.326, "EPHEMERIS_TYPE": 0, "CLASSIFICATION_TYPE": "U", "NORAD_CAT_ID": 59371, "ELEMENT_SET_NO": 999, "REV_AT_EPOCH": 9570, "BSTAR": 0.00011189904, "MEAN_MOTION_DOT": 3.393e-05, "MEAN_MOTION_DDOT": 0}, "tle": {"line1": "1 59371U 24061A   25349.97313166  .00003393  00000+0  11190-3 0  9999", "line2": "2 59371  97.2544 296.2368 0001271  54.8101 305.3260 15.32112121 95703"}}, "geometry": {"type": "Point", "coordinates": [170.2336061398551, 80.98445280351109]}}, {"type": "Feature", "properties": {"norad_id": 59625, "name": "LEGION 1", "group": "resource", "lat": 73.0395571819258, "lon": -89.14306220214252, "alt_km": 511.8979402608684, "timestamp": "2025-12-16T13:52:37.187641+00:00", "meta": {"OBJECT_NAME": "LEGION 1", "OBJECT_ID": "2024-081A", "EPOCH": "2025-12-15T21:34:43.704480", "MEAN_MOTION": 15.16513038, "ECCENTRICITY": 0.00038031, "INCLINATION": 97.5215, "RA_OF_ASC_NODE": 64.5106, "ARG_OF_PERICENTER": 303.8835, "MEAN_ANOMALY": 56.2036, "EPHEMERIS_TYPE": 0, "CLASSIFICATION_TYPE": "U", "NORAD_CAT_ID": 59625, "ELEMENT_SET_NO": 999, "REV_AT_EPOCH": 8975, "BSTAR": 0.00021189928, "MEAN_MOTION_DOT": 4.062e-05, "MEAN_MOTION_DDOT": 0}, "tle": {"line1": "1 59625U 24081A   25349.89911695  .00004062  00000+0  21190-3 0  9990", "line2": "2 59625  97.5215  64.5106 0003803 303.8835  56.2036 15.16513038 89758"}}, "geometry": {"type": "Point", "coordinates": [-89.14306220214252, 73.0395571819258]}}, {"type": "Feature", "properties": {"norad_id": 59626, "name": "LEGION 2", "group": "resource", "lat": -73.15195413242259, "lon": 91.14052035165527, "alt_km": 519.8134205814677, "timestamp": "2025-12-16T13:52:37.187651+00:00", "meta": {"OBJECT_NAME": "LEGION 2", "OBJECT_ID": "2024-081B", "EPOCH": "2025-12-15T22:22:15.112704", "MEAN_MOTION": 15.16526622, "ECCENTRICITY": 0.00056218, "INCLINATION": 97.5218, "RA_OF_ASC_NODE": 64.6307, "ARG_OF_PERICENTER": 280.0572, "MEAN_ANOMALY": 80.0027, "EPHEMERIS_TYPE": 0, "CLASSIFICATION_TYPE": "U", "NORAD_CAT_ID": 59626, "ELEMENT_SET_NO": 999, "REV_AT_EPOCH": 8976, "BSTAR": 0.00018734775, "MEAN_MOTION_DOT": 3.586e-05, "MEAN_MOTION_DDOT": 0}, "tle": {"line1": "1 59626U 24081B   25349.93211936  .00003586  00000+0  18735-3 0  9998", "line2": "2 59626  97.5218  64.6307 0005621 280.0572  80.0027 15.16526622 89769"}}, "geometry": {"type": "Point", "coordinates": [91.14052035165527, -73.15195413242259]}}, {"type": "Feature", "properties": {"norad_id": 60182, "name": "ALOS-4 (DAICHI-4)", "group": "resource", "lat": 28.325445908964063, "lon": -90.32466576537664, "alt_km": 629.1330406679617, "timestamp": "2025-12-16T13:52:37.187661+00:00", "meta": {"OBJECT_NAME": "ALOS-4 (DAICHI-4)", "OBJECT_ID": "2024-123A", "EPOCH": "2025-12-16T00:12:36.469152", "MEAN_MOTION": 14.79474959, "ECCENTRICITY": 0.00014303, "INCLINATION": 97.9226, "RA_OF_ASC_NODE": 84.8093, "ARG_OF_PERICENTER": 100.3975, "MEAN_ANOMALY": 259.7397, "EPHEMERIS_TYPE": 0, "CLASSIFICATION_TYPE": "U", "NORAD_CAT_ID": 60182, "ELEMENT_SET_NO": 999, "REV_AT_EPOCH": 7879, "BSTAR": 0.00022000961, "MEAN_MOTION_DOT": 1.592e-05, "MEAN_MOTION_DDOT": 0}, "tle": {"line1": "1 60182U 24123A   25350.00875543  .00001592  00000+0  22001-3 0  9990", "line2": "2 60182  97.9226  84.8093 0001430 100.3975 259.7397 14.79474959 78791"}}, "geometry": {"type": "Point", "coordinates": [-90.32466576537664, 28.325445908964063]}}, {"type": "Feature", "properties": {"norad_id": 60452, "name": "LEGION 3", "group": "resource", "lat": -1.0338319754676282, "lon": -71.4823294096726, "alt_km": 526.5947697814718, "timestamp": "2025-12-16T13:52:37.187672+00:00", "meta": {"OBJECT_NAME": "LEGION 3", "OBJECT_ID": "2024-146A", "EPOCH": "2025-12-15T20:29:06.193824", "MEAN_MOTION": 15.15797043, "ECCENTRICITY": 0.00152486, "INCLINATION": 45.0021, "RA_OF_ASC_NODE": 293.4392, "ARG_OF_PERICENTER": 215.5515, "MEAN_ANOMALY": 144.4348, "EPHEMERIS_TYPE": 0, "CLASSIFICATION_TYPE": "U", "NORAD_CAT_ID": 60452, "ELEMENT_SET_NO": 999, "REV_AT_EPOCH": 7420, "BSTAR": 0.0002341463, "MEAN_MOTION_DOT": 4.295e-05, "MEAN_MOTION_DDOT": 0}, "tle": {"line1": "1 60452U 24146A   25349.85354391  .00004295  00000+0  23415-3 0  9992", "line2": "2 60452  45.0021 293.4392 0015248 215.5515 144.4348 15.15797043 74200"}}, "geometry": {"type": "Point", "coordinates": [-71.4823294096726, -1.0338319754676282]}}]}